ELYSIUM STAR 2 & LFF    
1 43760U 18099C   23208.42331888  .00014246  00000+0  94112-3 0  9995
2 43760  97.5647 273.6419 0007223 331.1490  28.9337 15.07495193253913
2018-099D               
1 43761U 18099D   23208.35666110  .00002407  00000+0  20957-3 0  9999
2 43761  97.5702 268.4233 0013419 354.5145   5.5929 14.97772135253585
AISTECHSAT 2            
1 43768U 18099L   23208.43632079  .00004565  00000+0  38366-3 0  9992
2 43768  97.5644 266.9568 0009452 357.2325   2.8844 14.98738831253271
FOX-1CLIFF (AO-95)      
1 43770U 18099N   23207.98249564  .00006886  00000+0  55323-3 0  9997
2 43770  97.5696 268.4408 0014567  19.2947 340.8825 15.00261931253572
RANGE-A                 
1 43772U 18099Q   23207.67333952  .00008436  00000+0  64622-3 0  9995
2 43772  97.5669 271.0313 0005929 316.0112  44.0641 15.02084736253592
RANGE-B                 
1 43773U 18099R   23208.12981241  .00003831  00000+0  32219-3 0  9998
2 43773  97.5634 266.5510 0012281 353.4411   6.6650 14.98793804253545
2018-099T               
1 43775U 18099T   23208.44002061  .00003439  00000+0  29291-3 0  9999
2 43775  97.5693 268.3848 0012751 353.7289   6.3772 14.98361159253595
MOVE-II                 
1 43780U 18099Y   23208.41805409  .00010719  00000+0  76784-3 0  9997
2 43780  97.5686 271.6090 0008891  27.3126 332.8566 15.04536102253782
SNUSAT-2                
1 43782U 18099AA  23208.41697045  .00004370  00000+0  35439-3 0  9992
2 43782  97.5694 269.3950 0012129 327.9384  32.1101 15.00124594253662
SNUGLITE                
1 43784U 18099AC  23208.41811398  .00005436  00000+0  43327-3 0  9992
2 43784  97.5605 269.0722 0006037 346.6584  13.4479 15.00724217253704
ITASAT 1                
1 43786U 18099AE  23208.59442394  .00005233  00000+0  42579-3 0  9992
2 43786  97.5765 270.0728 0014324   2.8599 357.2704 14.99890201253700
KAZSCISAT-1             
1 43787U 18099AF  23208.12257436  .00012113  00000+0  87829-3 0  9995
2 43787  97.5536 269.5974 0007316 357.3842   2.7344 15.04058455253778
EAGLET-I                
1 43790U 18099AJ  23208.44786780  .00004092  00000+0  33874-3 0  9991
2 43790  97.5719 270.3702 0010976 359.8746   0.2473 14.99372506253416
ESEO                    
1 43792U 18099AL  23208.44663662  .00002718  00000+0  23585-3 0  9997
2 43792  97.5667 268.7217 0012110 358.1192   1.9983 14.97811542253411
CSIM-FD                 
1 43793U 18099AM  23207.90324826  .00011663  00000+0  82441-3 0  9999
2 43793  97.5751 272.4796 0014863 359.5258   0.5951 15.04955256253550
ASTROCAST 0.1           
1 43798U 18099AS  23208.41919228  .00008955  00000+0  66284-3 0  9994
2 43798  97.5823 272.2820 0010905 334.1852  25.8828 15.03334856253811
JY1SAT (JO-97)          
1 43803U 18099AX  23208.44448493  .00006568  00000+0  51344-3 0  9994
2 43803  97.5732 270.0002 0013733 330.0973  29.9466 15.01336466253737
SUOMI-100               
1 43804U 18099AY  23208.45073901  .00006237  00000+0  49161-3 0  9991
2 43804  97.5717 269.7723 0019326 342.0791  17.9750 15.00966178253732
AL-FARABI 2             
1 43805U 18099AZ  23208.41165739  .00007738  00000+0  58128-3 0  9999
2 43805  97.5568 270.8315 0011714 331.3654  28.6927 15.02813677253797
CENTAURI-1              
1 43809U 18099BD  23208.59427020  .00004894  00000+0  40041-3 0  9991
2 43809  97.5729 269.9144 0013920   1.9119 358.2156 14.99709601253428
CHOMPTT                 
1 43855U 18104G   23208.55334901  .00028485  00000+0  65513-3 0  9993
2 43855  85.0300 138.6575 0013353 150.0602 210.1417 15.42415261256793
UWE-4                   
1 43880U 18111E   23208.18368357  .00006790  00000+0  51085-3 0  9994
2 43880  97.6312 112.7525 0020421  43.2755 317.0070 15.02692577250370
ZACUBE-2                
1 43907U 18111AH  23208.57645919  .00029849  00000+0  68083-3 0  9995
2 43907  97.1326  87.2740 0016219  72.1691 288.1325 15.42713897255374
MICRODRAGON             
1 43935U 19003D   23208.28200774  .00019442  00000+0  55695-3 0  9994
2 43935  97.1025 226.4009 0014862 158.8451 201.3412 15.35841779251580
FORMOSAT 7-4            
1 44350U 19036M   23208.41706947  .00007506  00000+0  42886-3 0  9996
2 44350  23.9991 112.0971 0000140  64.5556 295.4963 15.10005033224787
METEOR-M2 2             
1 44387U 19038A   23208.57942626  .00000051  00000+0  41791-4 0  9994
2 44387  98.7781 172.4073 0001646 137.4490 222.6816 14.23794366211058
VDNH-80                 
1 44392U 19038G   23208.57075792  .00024021  00000+0  79221-3 0  9992
2 44392  97.6737 191.1748 0016154 151.8857 208.3259 15.31312615224573
D-STAR ONE (LIGHTSAT)   
1 44393U 19038H   23208.43702246  .00025774  00000+0  82881-3 0  9991
2 44393  97.6741 191.1624 0016163 151.8600 208.3518 15.32110554224676
AMGU-1 (AMURSAT)        
1 44394U 19038J   23208.54501105  .00028143  00000+0  84911-3 0  9994
2 44394  97.6716 191.6652 0015555 149.6373 210.5773 15.34132622224727
DOT-1                   
1 44399U 19038P   23208.40336848  .00013636  00000+0  56254-3 0  9994
2 44399  97.6841 187.6068 0019772 169.0374 191.1298 15.23999339224404
SOKRAT                  
1 44404U 19038U   23208.56180132  .00028511  00000+0  87519-3 0  9997
2 44404  97.6727 191.1572 0016010 151.3869 208.8255 15.33575489224696
LUCKY-7                 
1 44406U 19038W   23208.41419428  .00015273  00000+0  60762-3 0  9998
2 44406  97.6818 188.3587 0019674 159.6443 200.5583 15.25191618224457
D-STAR ONE (EXOCONNECT) 
1 44410U 19038AA  23208.44512163  .00112521  00000+0  16287-2 0  9992
2 44410  97.6599 196.5547 0013801 132.4891 227.7531 15.55397942225071
NARSSCUBE-2             
1 44415U 19022E   23208.31118651  .00033320  00000+0  56691-3 0  9993
2 44415  51.6354 299.6113 0008166  81.9014 278.2901 15.51066793222535
DUCHIFAT-3              
1 44854U 19089C   23208.36993816  .00008711  00000+0  57630-3 0  9992
2 44854  36.9604 211.0223 0009596 279.4037  80.5622 15.06887396198966
OPS-SAT                 
1 44878U 19092F   23208.46531292  .00026413  00000+0  74183-3 0  9990
2 44878  97.4750  37.7879 0007934 357.9626   2.1584 15.36486464199979
FLORIPASAT-1            
1 44885U 19093G   23208.48121944  .00003813  00000+0  44060-3 0  9990
2 44885  97.8673 289.2030 0012323 311.1340  48.8811 14.86120524194938
BY70-2                  
1 45857U 20042B   23208.53776133  .00019775  00000+0  19513-2 0  9996
2 45857  97.9246 288.6157 0008860 222.9947 137.0580 14.91985046165555
SALSAT                  
1 46495U 20068K   23208.59926128  .00005652  00000+0  36956-3 0  9990
2 46495  97.7711 157.0435 0014902 349.6947  10.3973 15.08117005155164
NETSAT-4                
1 46504U 20068U   23208.59195265  .00007452  00000+0  48618-3 0  9999
2 46504  97.7635 154.8015 0012127  40.6937 319.5195 15.08112489154994
NETSAT-3                
1 46505U 20068V   23208.56376737  .00006279  00000+0  41269-3 0  9993
2 46505  97.7612 154.5752 0011491  49.5768 310.6461 15.07912401154997
NETSAT-1                
1 46506U 20068W   23208.54927555  .00005665  00000+0  37662-3 0  9992
2 46506  97.7619 154.4242 0009926  58.0889 302.1303 15.07543534154984
NETSAT-2                
1 46507U 20068X   23208.59175313  .00007278  00000+0  47614-3 0  9995
2 46507  97.7622 154.5353 0009533  64.4718 295.7495 15.08040597154946
UVSQ-SAT                
1 47438U 21006AB  23208.12238836  .00019187  00000+0  75584-3 0  9990
2 47438  97.3814 264.6814 0007776 303.0591  56.9900 15.25616330138732
SOMP2B                  
1 47445U 21006AJ  23208.59040781  .00014973  00000+0  60477-3 0  9992
2 47445  97.3783 264.3309 0007755 308.2622  51.7917 15.24833603138778
CAS-5A                  
1 54684U 22167C   23208.57839953  .00013047  00000+0  70151-3 0  9990
2 54684  97.5667 345.9139 0013303 190.7126 169.3825 15.14932380 34792
